IRIDIUM 155             
1 43573U 18061E   23318.46859956  .00000398  00000+0  13516-3 0  9995
2 43573  86.3943  91.9401 0001853  97.4363 262.7043 14.34214808277814
IRIDIUM 154             
1 43574U 18061F   23317.61231948  .00000444  00000+0  15151-3 0  9996
2 43574  86.3945  92.3856 0001991  85.1221 275.0202 14.34224594277734
IRIDIUM 163             
1 43575U 18061G   23318.43054293  .00000415  00000+0  14115-3 0  9991
2 43575  86.3945  91.9883 0002051  89.0543 271.0887 14.34216513277825
IRIDIUM 156             
1 43576U 18061H   23317.63771861  .00000072  00000+0  18738-4 0  9995
2 43576  86.3943  92.3259 0002155  98.5239 261.6201 14.34212094277700
IRIDIUM 164             
1 43577U 18061J   23317.82798642  .00000613  00000+0  21198-3 0  9997
2 43577  86.3946  92.2718 0002230  94.6523 265.4927 14.34214569277773
IRIDIUM 159             
1 43578U 18061K   23318.07535903  .00000418  00000+0  14206-3 0  9990
2 43578  86.3942  92.1252 0001976  91.5792 268.5630 14.34216612277778
IRIDIUM 180             
1 43922U 19002A   23317.86554044  .00000407  00000+0  13827-3 0  9998
2 43922  86.4009  29.0805 0002226  89.7086 270.4364 14.34219894253396
IRIDIUM 176             
1 43923U 19002B   23318.18449089  .00001437  00000+0  22418-3 0  9997
2 43923  86.6137  28.9800 0002284  92.5081 267.6398 14.72226954260069
IRIDIUM 168             
1 43924U 19002C   23318.13827664  .00000378  00000+0  12784-3 0  9990
2 43924  86.4013  29.0172 0002102  89.9408 270.2029 14.34216966253374
IRIDIUM 173             
1 43925U 19002D   23318.47444116  .00000411  00000+0  13968-3 0  9998
2 43925  86.4008  28.8044 0001964  93.5282 266.6138 14.34213822253413
IRIDIUM 169             
1 43926U 19002E   23318.36325744  .00000527  00000+0  16568-3 0  9999
2 43926  86.4240  60.4569 0002515 177.5068 182.6143 14.38612490254247
IRIDIUM 172             
1 43927U 19002F   23318.11925592  .00000434  00000+0  14793-3 0  9995
2 43927  86.4008  28.9578 0002128  91.0971 269.0469 14.34214784253365
IRIDIUM 175             
1 43928U 19002G   23318.17835876  .00001326  00000+0  20634-3 0  9999
2 43928  86.1542  14.3445 0002257  94.5929 265.5546 14.72242292260050
IRIDIUM 171             
1 43929U 19002H   23318.16999694  .00000416  00000+0  14139-3 0  9990
2 43929  86.4018  29.1379 0002287  94.2540 265.8917 14.34212540253363
IRIDIUM 170             
1 43930U 19002J   23318.19058447  .00001437  00000+0  22393-3 0  9992
2 43930  86.6136  28.9820 0002335  97.5322 262.6161 14.72255260260074
IRIDIUM 167             
1 43931U 19002K   23318.44272158  .00000378  00000+0  12774-3 0  9993
2 43931  86.4008  28.8367 0002254  96.1149 264.0303 14.34218058253403
IRIDIUM 181             
1 56726U 23068S   23318.25529228  .00000569  00000+0  16217-3 0  9996
2 56726  86.8628  72.1687 0003236 103.1936 256.9627 14.43588359 25985
IRIDIUM 177             
1 56727U 23068T   23317.96757262  .00002222  00000+0  28910-3 0  9996
2 56727  86.1998  58.0000 0002185  92.4604 267.6867 14.80209227 26391
IRIDIUM 174             
1 56728U 23068U   23318.36776075  .00002064  00000+0  26828-3 0  9995
2 56728  86.2006  57.8963 0001980  96.8339 263.3107 14.80214843 26450
IRIDIUM 178             
1 56729U 23068V   23318.36242313  .00002033  00000+0  26427-3 0  9990
2 56729  86.5795  65.1335 0002185  90.2802 269.8669 14.80217087 26452
IRIDIUM 179             
1 56730U 23068W   23318.01896764  .00002231  00000+0  29034-3 0  9996
2 56730  86.6802  66.6919 0001892  96.5333 263.6104 14.80218977 26400
